NORAD_CAT_ID,OBJECT_NAME,OBJECT_TYPE,EPOCH,MEAN_MOTION,ECCENTRICITY,INCLINATION,RA_OF_ASC_NODE,ARG_OF_PERICENTER,MEAN_ANOMALY,BSTAR,MEAN_MOTION_DOT,MEAN_MOTION_DDOT,TLE_LINE0,TLE_LINE1,TLE_LINE2,SEMIMAJOR_AXIS,PERIOD,APOGEE,PERIGEE,DECAYED
51784.0,STARLINK-3632,PAYLOAD,2022-04-04 14:00:01,15.49873131,0.0001149,53.2153,317.249,61.643,357.0353,0.00062759,0.00035313,0.0,0 STARLINK-3632,1 51784U 22017S   22094.58334491  .00035313  00000-0  62759-3 0  9998,2 51784  53.2153 317.2490 0001149  61.6430 357.0353 15.49873131  7192,6795.234,92.911,417.88,416.318,0.0
51784.0,STARLINK-3632,PAYLOAD,2022-04-04 22:00:00,15.49918716,0.0001333,53.2154,315.6579,51.2347,68.3657,-0.00078087,-0.00044571,0.0,0 STARLINK-3632,1 51784U 22017S   22094.91667824 -.00044571  00000-0 -78087-3 0  9993,2 51784  53.2154 315.6579 0001333  51.2347  68.3657 15.49918716  3701,6795.101,92.908,417.871,416.06,0.0
51784.0,STARLINK-3632,PAYLOAD,2022-04-05 06:00:00,15.49888269,0.0001378,53.2155,314.064,53.8195,126.7091,-0.00084792,-0.00048285,0.0,0 STARLINK-3632,1 51784U 22017S   22095.25001157 -.00048285  00000-0 -84792-3 0  9998,2 51784  53.2155 314.0640 0001378  53.8195 126.7091 15.49888269  7290,6795.19,92.91,417.991,416.11800000000005,0.0
51784.0,STARLINK-3632,PAYLOAD,2022-04-05 14:00:01,15.49857245,0.0001363,53.2159,312.4694,62.9403,178.547,0.0007653,0.00043181,0.0,0 STARLINK-3632,1 51784U 22017S   22095.58335648  .00043181  00000-0  76530-3 0  9998,2 51784  53.2159 312.4694 0001363  62.9403 178.5470 15.49857245  3698,6795.28,92.912,418.072,416.219,0.0
51784.0,STARLINK-3632,PAYLOAD,2022-04-05 22:00:00,15.49873497,0.0001561,53.216,310.8785,54.3497,247.9718,0.00028682,0.00015853,0.0,0 STARLINK-3632,1 51784U 22017S   22095.91667824  .00015853  00000-0  28682-3 0  9999,2 51784  53.2160 310.8785 0001561  54.3497 247.9718 15.49873497  7407,6795.233,92.911,418.159,416.037,0.0
51784.0,STARLINK-3632,PAYLOAD,2022-04-06 14:00:01,15.49930413,0.0001529,53.216,307.6903,61.9846,2.1719,-0.00088203,-0.00050272,0.0,0 STARLINK-3632,1 51784U 22017S   22096.58334491 -.00050272  00000-0 -88203-3 0  9995,2 51784  53.2160 307.6903 0001529  61.9846   2.1719 15.49930413  3690,6795.066,92.907,417.97,415.892,0.0
51784.0,STARLINK-3632,PAYLOAD,2022-04-06 22:00:00,15.49859478,0.0001792,53.2157,306.0993,57.5609,67.5477,0.00024098,0.00013236,0.0,0 STARLINK-3632,1 51784U 22017S   22096.91667824  .00013236  00000-0  24098-3 0  9990,2 51784  53.2157 306.0993 0001792  57.5609  67.5477 15.49859478  3695,6795.274,92.912,418.356,415.921,0.0
51784.0,STARLINK-3632,PAYLOAD,2022-04-07 04:00:00,15.49881105,0.0001751,53.2151,304.9038,56.8922,23.8769,-7.2303e-05,-4.553e-05,0.0,0 STARLINK-3632,1 51784U 22017S   22097.16667824 -.00004553  00000-0 -72303-4 0  9995,2 51784  53.2151 304.9038 0001751  56.8922  23.8769 15.49881105  7595,6795.2109999999975,92.91,418.265,415.886,0.0
51784.0,STARLINK-3632,PAYLOAD,2022-04-07 14:00:01,15.49885532,0.0001631999999999,53.2155,302.9112,66.78,180.1166,0.0004968,0.00027845,0.0,0 STARLINK-3632,1 51784U 22017S   22097.58334491  .00027845  00000-0  49680-3 0  9990,2 51784  53.2155 302.9112 0001632  66.7800 180.1166 15.49885532  3696,6795.198,92.91,418.172,415.954,0.0
51784.0,STARLINK-3632,PAYLOAD,2022-04-07 20:00:01,15.49901555,0.0001701,53.2153,301.7181,59.01600000000001,143.5758,-4.1293e-05,-2.796e-05,0.0,0 STARLINK-3632,1 51784U 22017S   22097.83334491 -.00002796  00000-0 -41293-4 0  9991,2 51784  53.2153 301.7181 0001701  59.0160 143.5758 15.49901555  7696,6795.151,92.909,418.172,415.86,0.0
51784.0,STARLINK-3632,PAYLOAD,2022-04-07 22:00:00,15.4990006,0.0001706999999999,53.2154,301.3203,57.4185,250.4066,2.7187e-05,1.092e-05,0.0,0 STARLINK-3632,1 51784U 22017S   22097.91667824  .00001092  00000-0  27187-4 0  9991,2 51784  53.2154 301.3203 0001707  57.4185 250.4066 15.49900060  3677,6795.155,92.909,418.18,415.86,0.0
51784.0,STARLINK-3632,PAYLOAD,2022-04-08 14:00:03,15.49877674,0.0001381,53.2155,298.1318,61.481,8.3253,0.00045978,0.00025722,0.0,0 STARLINK-3632,1 51784U 22017S   22098.58336806  .00025722  00000-0  45978-3 0  9991,2 51784  53.2155 298.1318 0001381  61.4810   8.3253 15.49877674  3690,6795.221,92.911,418.024,416.147,0.0
51784.0,STARLINK-3632,PAYLOAD,2022-04-08 22:00:00,15.4988395,0.0001478,53.2157,296.5411,50.6128,79.973,-2.2557e-06,-5.8e-06,0.0,0 STARLINK-3632,1 51784U 22017S   22098.91667824 -.00000580  00000-0 -22557-5 0  9992,2 51784  53.2157 296.5411 0001478  50.6128  79.9730 15.49883950  7868,6795.2019999999975,92.91,418.072,416.06300000000016,0.0
51784.0,STARLINK-3632,PAYLOAD,2022-04-09 14:00:01,15.49857987,0.0001232,53.2159,293.3531,53.502,198.8752,0.00023631,0.0001296999999999,0.0,0 STARLINK-3632,1 51784U 22017S   22099.58334491  .00012970  00000-0  23631-3 0  9993,2 51784  53.2159 293.3531 0001232  53.5020 198.8752 15.49857987  3692,6795.278,92.912,417.98,416.306,0.0
51784.0,STARLINK-3632,PAYLOAD,2022-04-09 16:00:00,15.4987326,0.0001284999999999,53.2159,292.9554,49.9685,307.6255,-0.00032836,-0.00019034,0.0,0 STARLINK-3632,1 51784U 22017S   22099.66667824 -.00019034  00000-0 -32836-3 0  9998,2 51784  53.2159 292.9554 0001285  49.9685 307.6255 15.49873260  7982,6795.233,92.911,417.972,416.225,0.0
51784.0,STARLINK-3632,PAYLOAD,2022-04-09 22:00:00,15.49849685,0.0001445,53.216,291.7613,44.3242,268.9491,0.00082091,0.00046358,0.0,0 STARLINK-3632,1 51784U 22017S   22099.91667824  .00046358  00000-0  82091-3 0  9991,2 51784  53.2160 291.7613 0001445  44.3242 268.9491 15.49849685  3681,6795.302,92.912,418.149,416.185,0.0
51784.0,STARLINK-3632,PAYLOAD,2022-04-10 14:00:01,15.49682301,0.0001431999999999,53.2171,288.5665,54.8922,20.1376,-0.0063891999999999,-0.00345076,0.0,0 STARLINK-3632,1 51784U 22017S   22100.58334491 -.00345076  00000-0 -63892-2 0  9996,2 51784  53.2171 288.5665 0001432  54.8922  20.1376 15.49682301  8125,6795.792,92.922,418.63,416.684,0.0
51784.0,STARLINK-3632,PAYLOAD,2022-04-10 20:00:01,15.49565689,0.0001512,53.2176,287.3722,41.663,348.7971,-0.013964,-0.00725343,0.0,0 STARLINK-3632,1 51784U 22017S   22100.83334491 -.00725343  00000-0 -13964-1 0  9997,2 51784  53.2176 287.3722 0001512  41.6630 348.7971 15.49565689  8163,6796.1330000000025,92.929,419.025,416.97,0.0
51784.0,STARLINK-3632,PAYLOAD,2022-04-10 22:00:00,15.49433589,0.0001661,53.2176,286.9741,41.9898,93.5835,-0.01387,-0.00717714,0.0,0 STARLINK-3632,1 51784U 22017S   22100.91667824 -.00717714  00000-0 -13870-1 0  9994,2 51784  53.2176 286.9741 0001661  41.9898  93.5835 15.49433589  3693,6796.519,92.937,419.513,417.255,0.0
51784.0,STARLINK-3632,PAYLOAD,2022-04-11 14:00:01,15.48415868,0.000153,53.2177,283.7892,50.1522,204.9342,-0.014438,-0.00720483,0.0,0 STARLINK-3632,1 51784U 22017S   22101.58334491 -.00720483  00000-0 -14438-1 0  9997,2 51784  53.2177 283.7892 0001530  50.1522 204.9342 15.48415868  3686,6799.496999999999,92.998,422.402,420.321,0.0
51784.0,STARLINK-3632,PAYLOAD,2022-04-11 22:00:00,15.47904916,0.0001389,53.2175,282.2012,52.6256,261.2975,-0.014673,-0.00719258,0.0,0 STARLINK-3632,1 51784U 22017S   22101.91667824 -.00719258  00000-0 -14673-1 0  9992,2 51784  53.2175 282.2012 0001389  52.6256 261.2975 15.47904916  3678,6800.993,93.029,423.80300000000005,421.913,0.0
51784.0,STARLINK-3632,PAYLOAD,2022-04-12 04:00:00,15.47525163,0.00014,53.2174,281.0083,57.1513,210.4976,-0.014981,-0.00724259,0.0,0 STARLINK-3632,1 51784U 22017S   22102.16667824 -.00724259  00000-0 -14981-1 0  9999,2 51784  53.2174 281.0083 0001400  57.1513 210.4976 15.47525163  8374,6802.105,93.052,424.923,423.018,0.0
51784.0,STARLINK-3632,PAYLOAD,2022-04-12 14:00:01,15.4688696,0.0001471,53.2175,279.0237,44.2857,25.474,-0.015281,-0.00722636,0.0,0 STARLINK-3632,1 51784U 22017S   22102.58334491 -.00722636  00000-0 -15281-1 0  9997,2 51784  53.2175 279.0237 0001471  44.2857  25.4740 15.46886960  3674,6803.976,93.09,426.842,424.84,0.0
51784.0,STARLINK-3632,PAYLOAD,2022-04-12 22:00:00,15.46371596,0.0001621,53.2174,277.4392,41.7933,84.9664,-0.015349,-0.00713696,0.0,0 STARLINK-3632,1 51784U 22017S   22102.91667824 -.00713696  00000-0 -15349-1 0  9994,2 51784  53.2174 277.4392 0001621  41.7933  84.9664 15.46371596  3669,6805.488,93.121,428.456,426.25,0.0
51784.0,STARLINK-3632,PAYLOAD,2022-04-13 14:00:03,15.45355242,0.0001608,53.2175,274.269,48.3903,190.6573,-0.016028,-0.00719116,0.0,0 STARLINK-3632,1 51784U 22017S   22103.58336806 -.00719116  00000-0 -16028-1 0  9999,2 51784  53.2175 274.2690 0001608  48.3903 190.6573 15.45355242  8591,6808.471,93.182,431.431,429.242,0.0
51784.0,STARLINK-3632,PAYLOAD,2022-04-13 22:00:00,15.44843341,0.0001357,53.2175,272.6881,57.8204,236.2587,-0.016225,-0.00715504,0.0,0 STARLINK-3632,1 51784U 22017S   22103.91667824 -.00715504  00000-0 -16225-1 0  9999,2 51784  53.2175 272.6881 0001357  57.8204 236.2587 15.44843341  3683,6809.975,93.213,432.765,430.916,0.0
51784.0,STARLINK-3632,PAYLOAD,2022-04-14 14:00:01,15.43827479,0.0001598,53.2177,269.5256,37.5984,4.9631,-0.016984,-0.00722861,0.0,0 STARLINK-3632,1 51784U 22017S   22104.58334491 -.00722861  00000-0 -16984-1 0  9990,2 51784  53.2177 269.5256 0001598  37.5984   4.9631 15.43827479  8748,6812.962,93.275,435.916,433.739,0.0
51784.0,STARLINK-3632,PAYLOAD,2022-04-14 22:00:00,15.43312761,0.0001424,53.2173,267.948,48.5906,47.294,-0.017071,-0.00714585,0.0,0 STARLINK-3632,1 51784U 22017S   22104.91667824 -.00714585  00000-0 -17071-1 0  9998,2 51784  53.2173 267.9480 0001424  48.5906  47.2940 15.43312761  3672,6814.477,93.306,437.31300000000016,435.372,0.0
51784.0,STARLINK-3632,PAYLOAD,2022-04-15 03:48:49,15.4428212,0.0001730999999999,53.2157,266.8162,44.6772,315.4374,-0.0049153,-0.00223651,0.0,0 STARLINK-3632,1 51784U 22017S   22105.15890077 -.00223651  00000-0 -49153-2 0  9999,2 51784  53.2157 266.8162 0001731  44.6772 315.4374 15.44282120  8838,6811.625,93.247,434.669,432.311,0.0
